*******************************************************************************
Ephemeris / WWW_USER Mon Mar 24 08:45:44 2025 Pasadena, USA      / Horizons    
*******************************************************************************
Target body name: (2018 OZ)                       {source: JPL#6}
Center body name: Earth (399)                     {source: DE441}
Center-site name: Mauna Kea
*******************************************************************************
Start time      : A.D. 2018-Sep-03 04:45:00.0000 UT      
Stop  time      : A.D. 2018-Sep-03 15:57:00.0000 UT      
Step-size       : 1 minutes
*******************************************************************************
Target pole/equ : undefined
Target radii    : undefined                                                    
Center geodetic : 204.5278, 19.8260847, 4.21024   {E-lon(deg),Lat(deg),Alt(km)}
Center cylindric: 204.5278, 6006.35451, 2151.0229 {E-lon(deg),Dxy(km),Dz(km)}
Center pole/equ : ITRF93                          {East-longitude positive}
Center radii    : 6378.137, 6378.137, 6356.752 km {Equator_a, b, pole_c}       
Target primary  : Sun
Vis. interferer : MOON (R_eq= 1737.400) km        {source: DE441}
Rel. light bend : Sun                             {source: DE441}
Rel. lght bnd GM: 1.3271E+11 km^3/s^2                                          
Small-body perts: Yes                             {source: SB441-N16}
Atmos refraction: NO (AIRLESS)
RA format       : HMS
Time format     : CAL 
Calendar mode   : Mixed Julian/Gregorian
RTS-only print  : NO       
EOP file        : eop.250321.p250617                                           
EOP coverage    : DATA-BASED 1962-JAN-20 TO 2025-MAR-21. PREDICTS-> 2025-JUN-16
Units conversion: 1 au= 149597870.700 km, c= 299792.458 km/s, 1 day= 86400.0 s 
Table cut-offs 1: Elevation (-90.0deg=NO ),Airmass (>38.000=NO), Daylight (YES)
Table cut-offs 2: Solar elongation (  0.0,180.0=NO ),Local Hour Angle( 0.0=NO )
Table cut-offs 3: RA/DEC angular rate (     0.0=NO )                           
*******************************************************************************
Initial IAU76/J2000 heliocentric ecliptic osculating elements (au, days, deg.):
  EPOCH=  2458323.5 ! 2018-Jul-24.00 (TDB)         Residual RMS= .14478        
   EC= .2444891433359997   QR= .7813773137930096   TP= 2458414.1453434308      
   OM= 132.5941973996665   W=  282.5797798661226   IN= 11.86066121595313       
  Equivalent ICRF heliocentric cartesian coordinates (au, au/d):
   X= 5.818664496311505E-01  Y=-8.413793559776328E-01  Z=-3.233166781784031E-01
  VX= 1.092981696788880E-02 VY= 1.198494789184266E-02 VZ= 1.554952570596135E-03
Asteroid physical parameters (km, seconds, rotational period in hours):        
   GM= n.a.                RAD= n.a.               ROTPER= n.a.                
   H= 24.9                 G= .150                 B-V= n.a.                   
                           ALBEDO= n.a.            STYP= n.a.                  
*******************************************************************************
 Date__(UT)__HR:MN     R.A._________(ICRF)_________DEC
******************************************************
$$SOE
 2018-Sep-03 04:45 C   08 34 02.846746 -20 33 13.25385
 2018-Sep-03 04:46 C   08 34 02.930550 -20 33 12.63340
 2018-Sep-03 04:47 C   08 34 03.014408 -20 33 12.01318
 2018-Sep-03 04:48 C   08 34 03.098319 -20 33 11.39318
 2018-Sep-03 04:49 C   08 34 03.182283 -20 33 10.77341
 2018-Sep-03 04:50 C   08 34 03.266301 -20 33 10.15386
 2018-Sep-03 04:51 C   08 34 03.350371 -20 33 09.53455
 2018-Sep-03 04:52 C   08 34 03.434494 -20 33 08.91547
 2018-Sep-03 04:53 C   08 34 03.518669 -20 33 08.29662
 2018-Sep-03 04:54 C   08 34 03.602896 -20 33 07.67801
 2018-Sep-03 04:55 C   08 34 03.687175 -20 33 07.05962
 2018-Sep-03 04:56 C   08 34 03.771506 -20 33 06.44148
 2018-Sep-03 04:57 C   08 34 03.855889 -20 33 05.82357
 2018-Sep-03 04:58 C   08 34 03.940323 -20 33 05.20590
 2018-Sep-03 04:59 N   08 34 04.024808 -20 33 04.58846
 2018-Sep-03 05:00 N   08 34 04.109344 -20 33 03.97127
 2018-Sep-03 05:01 N   08 34 04.193930 -20 33 03.35432
 2018-Sep-03 05:02 N   08 34 04.278567 -20 33 02.73761
 2018-Sep-03 05:03 N   08 34 04.363254 -20 33 02.12115
 2018-Sep-03 05:04 N   08 34 04.447991 -20 33 01.50493
 2018-Sep-03 05:05 N   08 34 04.532778 -20 33 00.88895
 2018-Sep-03 05:06 N   08 34 04.617615 -20 33 00.27322
 2018-Sep-03 05:07 N   08 34 04.702501 -20 32 59.65774
 2018-Sep-03 05:08 N   08 34 04.787436 -20 32 59.04251
 2018-Sep-03 05:09 N   08 34 04.872420 -20 32 58.42753
 2018-Sep-03 05:10 N   08 34 04.957452 -20 32 57.81279
 2018-Sep-03 05:11 N   08 34 05.042533 -20 32 57.19832
 2018-Sep-03 05:12 N   08 34 05.127662 -20 32 56.58409
 2018-Sep-03 05:13 N   08 34 05.212840 -20 32 55.97012
 2018-Sep-03 05:14 N   08 34 05.298065 -20 32 55.35640
 2018-Sep-03 05:15 N   08 34 05.383337 -20 32 54.74294
 2018-Sep-03 05:16 N   08 34 05.468657 -20 32 54.12973
 2018-Sep-03 05:17 N   08 34 05.554024 -20 32 53.51679
 2018-Sep-03 05:18 N   08 34 05.639437 -20 32 52.90410
 2018-Sep-03 05:19 N   08 34 05.724898 -20 32 52.29168
 2018-Sep-03 05:20 N   08 34 05.810404 -20 32 51.67951
 2018-Sep-03 05:21 N   08 34 05.895957 -20 32 51.06761
 2018-Sep-03 05:22 N   08 34 05.981556 -20 32 50.45597
 2018-Sep-03 05:23 N   08 34 06.067200 -20 32 49.84460
 2018-Sep-03 05:24 N   08 34 06.152890 -20 32 49.23349
 2018-Sep-03 05:25 A   08 34 06.238625 -20 32 48.62265
 2018-Sep-03 05:26 A   08 34 06.324404 -20 32 48.01207
 2018-Sep-03 05:27 A   08 34 06.410229 -20 32 47.40176
 2018-Sep-03 05:28 A   08 34 06.496098 -20 32 46.79173
 2018-Sep-03 05:29 A   08 34 06.582011 -20 32 46.18196
 2018-Sep-03 05:30 A   08 34 06.667968 -20 32 45.57246
 2018-Sep-03 05:31 A   08 34 06.753969 -20 32 44.96324
 2018-Sep-03 05:32 A   08 34 06.840013 -20 32 44.35429
 2018-Sep-03 05:33 A   08 34 06.926101 -20 32 43.74561
 2018-Sep-03 05:34 A   08 34 07.012232 -20 32 43.13721
 2018-Sep-03 05:35 A   08 34 07.098405 -20 32 42.52908
 2018-Sep-03 05:36 A   08 34 07.184621 -20 32 41.92124
 2018-Sep-03 05:37 A   08 34 07.270879 -20 32 41.31366
 2018-Sep-03 05:38 A   08 34 07.357179 -20 32 40.70637
 2018-Sep-03 05:39 A   08 34 07.443520 -20 32 40.09936
 2018-Sep-03 05:40 A   08 34 07.529904 -20 32 39.49263
 2018-Sep-03 05:41 A   08 34 07.616328 -20 32 38.88618
 2018-Sep-03 05:42 A   08 34 07.702793 -20 32 38.28001
 2018-Sep-03 05:43 A   08 34 07.789300 -20 32 37.67412
 2018-Sep-03 05:44 A   08 34 07.875846 -20 32 37.06852
 2018-Sep-03 05:45 A   08 34 07.962433 -20 32 36.46321
 2018-Sep-03 05:46 A   08 34 08.049060 -20 32 35.85818
 2018-Sep-03 05:47 A   08 34 08.135726 -20 32 35.25344
 2018-Sep-03 05:48 A   08 34 08.222432 -20 32 34.64898
 2018-Sep-03 05:49 A   08 34 08.309178 -20 32 34.04481
 2018-Sep-03 05:50 A   08 34 08.395962 -20 32 33.44094
 2018-Sep-03 05:51     08 34 08.482784 -20 32 32.83735
 2018-Sep-03 05:52     08 34 08.569645 -20 32 32.23405
 2018-Sep-03 05:53     08 34 08.656545 -20 32 31.63105
 2018-Sep-03 05:54     08 34 08.743482 -20 32 31.02834
 2018-Sep-03 05:55     08 34 08.830457 -20 32 30.42592
 2018-Sep-03 05:56     08 34 08.917469 -20 32 29.82380
 2018-Sep-03 05:57     08 34 09.004518 -20 32 29.22197
 2018-Sep-03 05:58     08 34 09.091604 -20 32 28.62043
 2018-Sep-03 05:59     08 34 09.178727 -20 32 28.01920
 2018-Sep-03 06:00     08 34 09.265885 -20 32 27.41826
 2018-Sep-03 06:01     08 34 09.353080 -20 32 26.81762
 2018-Sep-03 06:02     08 34 09.440311 -20 32 26.21728
 2018-Sep-03 06:03     08 34 09.527577 -20 32 25.61724
 2018-Sep-03 06:04     08 34 09.614879 -20 32 25.01750
 2018-Sep-03 06:05     08 34 09.702215 -20 32 24.41806
 2018-Sep-03 06:06     08 34 09.789586 -20 32 23.81893
 2018-Sep-03 06:07     08 34 09.876991 -20 32 23.22010
 2018-Sep-03 06:08     08 34 09.964431 -20 32 22.62157
 2018-Sep-03 06:09     08 34 10.051904 -20 32 22.02334
 2018-Sep-03 06:10     08 34 10.139411 -20 32 21.42542
 2018-Sep-03 06:11     08 34 10.226951 -20 32 20.82781
 2018-Sep-03 06:12     08 34 10.314525 -20 32 20.23050
 2018-Sep-03 06:13     08 34 10.402131 -20 32 19.63351
 2018-Sep-03 06:14     08 34 10.489769 -20 32 19.03681
 2018-Sep-03 06:15     08 34 10.577440 -20 32 18.44043
 2018-Sep-03 06:16     08 34 10.665143 -20 32 17.84436
 2018-Sep-03 06:17     08 34 10.752877 -20 32 17.24860
 2018-Sep-03 06:18     08 34 10.840643 -20 32 16.65315
 2018-Sep-03 06:19     08 34 10.928440 -20 32 16.05801
 2018-Sep-03 06:20     08 34 11.016267 -20 32 15.46318
 2018-Sep-03 06:21     08 34 11.104126 -20 32 14.86867
 2018-Sep-03 06:22     08 34 11.192014 -20 32 14.27447
 2018-Sep-03 06:23     08 34 11.279933 -20 32 13.68058
 2018-Sep-03 06:24     08 34 11.367881 -20 32 13.08701
 2018-Sep-03 06:25     08 34 11.455858 -20 32 12.49376
 2018-Sep-03 06:26     08 34 11.543865 -20 32 11.90082
 2018-Sep-03 06:27     08 34 11.631900 -20 32 11.30819
 2018-Sep-03 06:28     08 34 11.719964 -20 32 10.71589
 2018-Sep-03 06:29     08 34 11.808057 -20 32 10.12390
 2018-Sep-03 06:30     08 34 11.896177 -20 32 09.53224
 2018-Sep-03 06:31     08 34 11.984325 -20 32 08.94089
 2018-Sep-03 06:32     08 34 12.072501 -20 32 08.34986
 2018-Sep-03 06:33     08 34 12.160703 -20 32 07.75915
 2018-Sep-03 06:34     08 34 12.248933 -20 32 07.16877
 2018-Sep-03 06:35     08 34 12.337189 -20 32 06.57870
 2018-Sep-03 06:36     08 34 12.425471 -20 32 05.98896
 2018-Sep-03 06:37     08 34 12.513779 -20 32 05.39954
 2018-Sep-03 06:38     08 34 12.602113 -20 32 04.81045
 2018-Sep-03 06:39     08 34 12.690472 -20 32 04.22168
 2018-Sep-03 06:40     08 34 12.778857 -20 32 03.63323
 2018-Sep-03 06:41     08 34 12.867266 -20 32 03.04511
 2018-Sep-03 06:42     08 34 12.955700 -20 32 02.45731
 2018-Sep-03 06:43     08 34 13.044158 -20 32 01.86984
 2018-Sep-03 06:44     08 34 13.132640 -20 32 01.28270
 2018-Sep-03 06:45     08 34 13.221146 -20 32 00.69588
 2018-Sep-03 06:46     08 34 13.309674 -20 32 00.10940
 2018-Sep-03 06:47     08 34 13.398227 -20 31 59.52324
